ONEWEB-0267             
1 48985U 21060U   21274.91667824 -.00047428  00000-0 -10249+0 0  9994
2 48985  87.9686 210.7338 0004981 343.5351 305.2368 13.29795561  3367
ONEWEB-0268             
1 48986U 21060V   21275.25001157  .00000015  00000-0  00000+0 0  9997
2 48986  87.9271 210.1696 0007411 349.9159   3.9919 13.77149979 14811
ONEWEB-0269             
1 48987U 21060W   21275.25001157  .00000013  00000-0  00000+0 0  9996
2 48987  87.9676 210.6685 0006302 343.2813 351.0213 13.31033400 14721
ONEWEB-0270             
1 48988U 21060X   21275.25001157  .00000013  00000-0  00000+0 0  9997
2 48988  87.9656 210.6309 0009789 300.8554 312.9223 13.33729787 14769
ONEWEB-0271             
1 48989U 21060Y   21275.25001157  .00000013  00000-0  00000+0 0  9998
2 48989  87.9640 210.6829 0008169 341.5277 333.1505 13.31384096 14750
ONEWEB-0272             
1 48990U 21060Z   21275.25001157  .00000013  00000-0  00000+0 0  9990
2 48990  87.9657 210.6453 0006271 338.3919 218.4715 13.31336414 14706
ONEWEB-0273             
1 48991U 21060AA  21275.25001157  .00000013  00000-0  00000+0 0  9991
2 48991  87.9625 210.6389 0012071 329.6799 150.0130 13.32091717 14688
ONEWEB-0274             
1 48992U 21060AB  21275.25001157 -.00071788  00000-0 -15583+0 0  9993
2 48992  87.9720 210.6731 0007929 347.3889   1.0179 13.29664593 14726
ONEWEB-0275             
1 48993U 21060AC  21275.25001157  .00000013  00000-0  00000+0 0  9993
2 48993  87.9484 210.6763 0008284 357.4231  17.1117 13.33838915 14644
ONEWEB-0276             
1 48994U 21060AD  21274.91667824 -.00052432  00000-0 -11281+0 0  9992
2 48994  87.9682 210.7768 0005966 335.4576 249.8934 13.30118495  3362
ONEWEB-0277             
1 48995U 21060AE  21274.91667824 -.00045758  00000-0 -98753-1 0  9997
2 48995  87.9693 210.7797 0003959   5.8071 237.0301 13.29870716  3350
ONEWEB-0278             
1 48996U 21060AF  21275.25001157  .00000014  00000-0  00000+0 0  9997
2 48996  87.9232 210.5485 0010600 306.9672 202.5323 13.47955666 14794
ONEWEB-0279             
1 48997U 21060AG  21275.25001157  .00000013  00000-0  00000+0 0  9997
2 48997  87.9693 210.6290 0010818 328.9080 223.5739 13.34551844 14711
ONEWEB-0280             
1 48998U 21060AH  21274.91667824 -.00044339  00000-0 -96022-1 0  9991
2 48998  87.9704 210.7327 0004093 353.9985 304.6685 13.29632115  3351
ONEWEB-0281             
1 48999U 21060AJ  21275.25001157  .00000013  00000-0  00000+0 0  9999
2 48999  87.9518 210.6245 0009342 339.7558  86.3230 13.35071506 14735
ONEWEB-0282             
1 49000U 21060AK  21274.91667824 -.00049390  00000-0 -10654+0 0  9993
2 49000  87.9699 210.8008 0005129 325.2097 180.7503 13.29926855  3363
ONEWEB-0283             
1 49001U 21060AL  21275.25001157  .00048239  00000-0  10288+0 0  9995
2 49001  87.9698 210.7032 0007307 314.6989  33.2685 13.29914617 14730
ONEWEB-0284             
1 49002U 21060AM  21275.25001157  .00000013  00000-0  00000+0 0  9995
2 49002  87.9592 210.6534 0006929 334.7485  62.1332 13.33008066 14707
ONEWEB-0285             
1 49075U 21075A   21275.25001157 -.00984661  00000-0 -10459+0 0  9992
2 49075  87.5244 352.1702 0019727 145.5253  94.3858 14.91835721  7575
ONEWEB-0286             
1 49076U 21075B   21275.25001157 -.00941848  00000-0 -91279-1 0  9994
2 49076  87.2291 351.7051 0021123 148.4110   1.5019 14.95290087  7599
ONEWEB-0287             
1 49077U 21075C   21274.91667824 -.00987653  00000-0 -11073+0 0  9992
2 49077  87.4527 352.2277 0021940 145.4405  93.3246 14.89648645  7514
ONEWEB-0288             
1 49078U 21075D   21274.91667824 -.00985254  00000-0 -97858-1 0  9995
2 49078  87.5214 352.2412 0020427 151.5324 293.3265 14.94467928  7542
ONEWEB-0289             
1 49079U 21075E   21274.91667824 -.00988339  00000-0 -11172+0 0  9996
2 49079  87.4460 352.1912 0022622 148.1557 172.0082 14.89307612  7501
ONEWEB-0290             
1 49080U 21075F   21275.25001157 -.00974936  00000-0 -10323+0 0  9992
2 49080  87.4542 352.0977 0024183 149.4967 160.4135 14.91839764  7564
ONEWEB-0291             
1 49081U 21075G   21275.25001157 -.01001269  00000-0 -11234+0 0  9996
2 49081  87.4562 352.0817 0020663 140.7512 341.4647 14.89684679  7580
ONEWEB-0293             
1 49082U 21075H   21274.91667824 -.01015566  00000-0 -11015+0 0  9990
2 49082  87.4517 352.1950 0023110 143.9719 227.7239 14.91026187  3603
ONEWEB-0294             
1 49083U 21075J   21275.25001157 -.00914942  00000-0 -75191-1 0  9992
2 49083  87.2558 351.6991 0023531 142.8937 317.4050 15.01927359  7608
ONEWEB-0295             
1 49084U 21075K   21274.91667824 -.00991770  00000-0 -11828+0 0  9993
2 49084  87.4430 352.2353 0021569 149.1018 284.3757 14.87180393  3590
ONEWEB-0296             
1 49085U 21075L   21274.91667824 -.00905714  00000-0 -78931-1 0  9997
2 49085  87.2465 351.8166 0023470 148.7754 266.2935 14.99675815  3609
ONEWEB-0297             
1 49086U 21075M   21275.25001157 -.00956826  00000-0 -10134+0 0  9996
2 49086  87.5236 352.1756 0020068 143.8818  95.6966 14.91863326  7582
ONEWEB-0298             
1 49087U 21075N   21275.25001157 -.01012842  00000-0 -11463+0 0  9995
2 49087  87.4541 352.0914 0021603 140.6816 269.7523 14.89351651  7577
ONEWEB-0299             
1 49088U 21075P   21275.25001157 -.01004012  00000-0 -12467+0 0  9991
2 49088  87.4354 352.1137 0020947 148.0027 223.5967 14.85589853  7544
ONEWEB-0300             
1 49089U 21075Q   21274.91667824 -.00967163  00000-0 -93823-1 0  9994
2 49089  87.5181 352.2312 0020295 150.2516 309.5768 14.95340316  3601
ONEWEB-0301             
1 49090U 21075R   21275.25001157 -.00915985  00000-0 -85932-1 0  9992
2 49090  87.2316 351.6858 0021584 146.1088 143.9977 14.96922804  7591
ONEWEB-0302             
1 49091U 21075S   21275.25001157 -.00911332  00000-0 -84528-1 0  9995
2 49091  87.2308 351.6726 0023570 142.0346 197.7798 14.97302462  7597
ONEWEB-0304             
1 49092U 21075T   21275.25001157 -.01025279  00000-0 -12598+0 0  9999
2 49092  87.4383 352.1181 0022692 150.8578 267.6008 14.86046216  7560
ONEWEB-0305             
1 49093U 21075U   21275.25001157 -.01008755  00000-0 -11416+0 0  9998
2 49093  87.4537 352.1039 0022038 141.0966 229.5575 14.89333285  7554
ONEWEB-0308             
1 49094U 21075V   21274.91667824 -.00933825  00000-0 -87898-1 0  9993
2 49094  87.2353 351.8216 0021242 148.3840  50.3120 14.96860003  3608
ONEWEB-0309             
1 49095U 21075W   21275.25001157 -.00977218  00000-0 -11720+0 0  9996
2 49095  87.4443 352.1201 0022833 150.8318  22.9616 14.86883777  7560
ONEWEB-0310             
1 49096U 21075X   21275.25001157 -.00986550  00000-0 -10220+0 0  9990
2 49096  87.5288 352.1664 0019430 149.3481 198.9973 14.92836818  7588
ONEWEB-0311             
1 49097U 21075Y   21274.91667824 -.01003161  00000-0 -10093+0 0  9999
2 49097  87.4629 352.1893 0021092 143.0464  71.8630 14.93999932  3594
ONEWEB-0312             
1 49098U 21075Z   21275.25001157 -.01010165  00000-0 -11738+0 0  9998
2 49098  87.4477 352.1103 0023205 147.2919 136.0091 14.88251163  7566
ONEWEB-0313             
1 49099U 21075AA  21274.91667824 -.00984710  00000-0 -10853+0 0  9992
2 49099  87.4542 352.2030 0020568 140.6254 306.5539 14.90350672  3596
ONEWEB-0314             
1 49100U 21075AB  21274.91667824 -.01003116  00000-0 -12114+0 0  9990
2 49100  87.4369 352.2217 0022170 151.0042 283.4109 14.86694593  3612
ONEWEB-0315             
1 49101U 21075AC  21275.25001157 -.00941762  00000-0 -95659-1 0  9994
2 49101  87.5226 352.1360 0020057 148.4563 218.4693 14.93471842  7588
ONEWEB-0316             
1 49102U 21075AD  21274.91667824 -.00943147  00000-0 -84138-1 0  9995
2 49102  87.2427 351.8012 0020642 136.3428 330.5806 14.98966498  3607
ONEWEB-0317             
1 49103U 21075AE  21274.91667824 -.00944092  00000-0 -75038-1 0  9995
2 49103  87.4938 352.1702 0019774 147.9871 213.8290 15.03357442  3612
ONEWEB-0318             
1 49104U 21075AF  21275.25001157 -.00887185  00000-0 -79450-1 0  9996
2 49104  87.2372 351.6675 0020967 131.6164   7.4076 14.98631234  7617
ONEWEB-0319             
1 49105U 21075AG  21275.25001157 -.01000523  00000-0 -11265+0 0  9999
2 49105  87.4536 352.0931 0022735 142.9594 229.7045 14.89499631  7572
ONEWEB-0323             
1 49106U 21075AH  21275.25001157 -.00935365  00000-0 -86224-1 0  9999
2 49106  87.2355 351.6872 0023300 140.2910 236.6291 14.97624489  7593
ONEWEB-0329             
1 49107U 21075AJ  21274.91667824 -.00980848  00000-0 -11498+0 0  9996
2 49107  87.4412 352.2178 0023145 151.1608 359.4486 14.87811440  3598
ONEWEB-0330             
1 49108U 21075AK  21275.25001157 -.01005820  00000-0 -10991+0 0  9992
2 49108  87.4580 352.0997 0022033 152.7856 201.1818 14.90724151  7568
ONEWEB-0292             
1 49186U 21083A   21275.25001157 -.01109839  00000-0 -52781-1 0  9997
2 49186  87.3313 322.0531 0017973 242.4967 227.9890 15.22154193  3960
ONEWEB-0303             
1 49187U 21083B   21275.25001157 -.01171732  00000-0 -57858-1 0  9999
2 49187  87.4237 322.1483 0016785 241.5075 319.8273 15.20590896  3951
ONEWEB-0306             
1 49188U 21083C   21275.25001157 -.01148176  00000-0 -53650-1 0  9992
2 49188  87.4297 322.1299 0019626 238.7305  68.8624 15.22814439  3959
ONEWEB-0307             
1 49189U 21083D   21274.91667824 -.01032838  00000-0 -49838-1 0  9994
2 49189  87.3322 322.1765 0015420 238.3390 142.1854 15.21503893  3919
ONEWEB-0320             
1 49190U 21083E   21275.25001157 -.01183742  00000-0 -59610-1 0  9995
2 49190  87.4205 322.1469 0016206 240.7238 296.0143 15.19960083  3953
ONEWEB-0321             
1 49191U 21083F   21275.25001157 -.01108886  00000-0 -51419-1 0  9991
2 49191  87.3334 322.0493 0018873 240.8265 260.5451 15.22982483  3966
ONEWEB-0322             
1 49192U 21083G   21275.25001157 -.01115181  00000-0 -53084-1 0  9998
2 49192  87.3320 322.0518 0017183 244.5528 218.7252 15.22155114  3963
